"pub_name","street_address","locality","region","post_code"
"The Captain Alexander","The Captain Alexander","Liverpool","Merseyside","L2 7NX"
"The Pump House","Unit 1 Parkgate Development, Stratford Road","Solihull","West Midlands","B90 3AQ"
"The Saxon Crown","100 Elizabeth Street","Corby","Northamptonshire","NN17 1FN"
"The George Hotel","1 George Street","Brecon","Powys","LD3 7LD"
"The Layton Rakes","17–25 Market Street","Blackpool","Lancashire","FY1 1ET"
"The Ferry Boat","10 Church Street","Runcorn","Cheshire","WA7 1LR"
"The Thomas Lloyd","3–7 Market Place","Warwick","Warwickshire","CV34 4SA"
"The Peter Cushing","16–18 Oxford Street","Whitstable","Kent","CT5 1DD"
"The George","2–8 High Street","Staines","Surrey","TW18 4EE"
"The Observatory","14a Market Place","Ilkeston","Derbyshire","DE7 5QA"
"The Staple Hill Oak","84–86 High Street","Bristol","Bristol","BS16 5HN"
"The Duke’s Head","Corn Square","Leominster","Herefordshire","HR6 8LR"
"The Ralph Fitz Randal","6 Queens Road","Richmond","North Yorkshire","DL10 4AE"
"The Bell","13–15 Salisbury Street","Amesbury","Wiltshire","SP4 7AW"
"The Watch Maker","60–62 Eccleston Street","Prescot","Merseyside","L34 5QL"
"The Stannary Court","95–99 Ridgeway","Plympton","Devon","PL7 2AA"
"The Mary Shelley","The Quadrant Centre","Bournemouth","Dorset","BH1 2AD"
"The Linford Arms","79 Market Place","Cannock","Staffordshire","WS11 1BN"
"The Red Lion","3 College Street","Petersfield","Hampshire","GU31 4AE"
"The Star","105 High Street","Hoddesdon","Hertfordshire","EN11 8TN"
"The Sir Julian Huxley","152–154 Addington Road","Selsdon","London","CR2 8LB"
"The Black Horse","Bristol Road South","Birmingham","West Midlands","B31 2QT"
"The Hedgeford Lodge","Anglesey Lodge, Anglesey Street","Hednesford","Staffordshire","WS12 1DL"
"The W. G. Grace","71–73 Whiteladies Road","Bristol","Bristol","BS8 2NT"
"The Picture House","Bridge Street","Stafford","Staffordshire","ST16 2HL"
"The Penny Black","110 Witton Street","Northwich","Cheshire","CW9 5AB"
"The Pilgrim Oak","44–46 High Street","Hucknall","Nottinghamshire","NG15 7AX"
"The Wheatsheaf","53 High Street","Cheadle","Staffordshire","ST10 1AR"
"The Forum","Market Place","Hexham","Northumberland","NE46 3PB"
"The Edmund Halley","Lee Gate Centre","Lee Green","London","SE12 8RG"
"The Drabbet Smock","5–6 Peas Hill","Haverhill","Suffolk","CB9 8BB"
"The Francis Newton","Clarkehouse Road","Sheffield","South Yorkshire","S10 2LA"
"The White Lady","98 St John’s Road","Edinburgh","Edinburgh","EH12 8AT"
"The Saxon Shore","78–80 Central Parade","Herne Bay","Kent","CT6 5JQ"
"The Royal Hop Pole","94 Church Street","Tewkesbury","Gloucestershire","GL20 5RS"
"The Mile Castle","19–25 Westgate Road & Grainger Street","Newcastle upon Tyne","Tyne and Wear","NE1 5XU"
"The Black Bull Inn","107 High Street","Bangor","Gwynedd","LL57 1NS"
"The Seven Stars","6–8 Dantzic Street","Manchester","Manchester","M4 2BS"
"The New Crown","80–84 Chase Side","Southgate","London","N14 5PH"
"The Moon Under Water","84–86 Staines Road","Hounslow","London","TW3 3LF"
"The Picture Palace","Fairfield Road","Braintree","Essex","CM7 3HA"
"The Bishop Blaize","708 Chester Road","Stretford","Greater Manchester","M32 0SF"
"The Regal","38–39 St Andrews Street","Cambridge","Cambridgeshire","CB2 3AR"
"The Art Picture House","36 Haymarket Street","Bury","Greater Manchester","BL9 0AY"
"The Elms","1060 London Road","Leigh-on-Sea","Essex","SS9 3ND"
"The Central Bar","Unit 1, West 12 Shopping Centre","Shepherds Bush","London","W12 8PH"
"The Devonshire","22 Newmarket Street","Skipton","North Yorkshire","BD23 2HR"
"The Bottle of Sack","2 Birmingham Road","Sutton Coldfield","West Midlands","B72 1QG"
"The Cherry Tree","Pearl Assurance House","Huddersfield","West Yorkshire","HD1 1BA"
"The Sir Alec Rose","32–33 The Boardwalk","Portsmouth","Hampshire","PO6 4TP"
"The King’s Highway","72–74 Church Street","Inverness","Highland","IV1 1EN"
"The Bull’s Head Hotel","12 High Street","Manchester","Greater Manchester","M28 3NJ"
"The Bridge House","35–43 Bedford Street","Belfast","County Antrim","BT2 7EJ"
"The Rising Sun","Unit 4, Alcester Street","Redditch","Worcestershire","B98 8AE"
"The London & Rye","109 Rushey Green","Catford","London","SE6 4AF"
"The Van Dyck Forum","748–756 Fishponds Road","Bristol","Bristol","BS16 3UA"
"The Tremenheere","4–8 Market Place","Penzance","Cornwall","TR18 2JA"
"The William Rufus","10–16 Botchergate","Carlisle","Cumbria","CA1 1QS"
"The Mail Rooms","Gloucester Road","Ross-on-Wye","Herefordshire","HR9 5BS"
"The Lord Keeper of the Great Seal","96–100 The Parade","Oadby","Leicestershire","LE2 5BF"
"Hoylake Lights","52–54 Market Street","Hoylake","Merseyside","CH47 3BB"
"The Wagon & Horses","2 Market Place","Sheffield","South Yorkshire","S35 2UU"
"The Golden Bee","41–42 Sheep Street","Stratford-upon-Avon","Warwickshire","CV37 6EE"
"The Spirit Merchant","54–56 Regent Street","Newtownards","County Down","BT23 4LP"
"The Salt Cot","7 Hamilton Street","Saltcoats","North Ayrshire","KA21 5DS"
"The Nine Arches","3 Legh Street","Newton-le-Willows","Merseyside","WA12 9NE"
"The Willow Tree","101 Ipswich Street","Stowmarket","Suffolk","IP14 1BB"
"The Rohan Kanhai","1–4 Woodhorn Road","Ashington","Northumberland","NE63 9UX"
"The William Webb Ellis","24 London Road","Twickenham","London","TW1 3RR"
"The Railway Hotel","Station Road","Lytham St Annes","Lancashire","FY8 5DH"
"The Justice Mill","423–425 Union Street","Aberdeen","Aberdeen","AB11 6DA"
"The Charlie Hall","49 Barnabas Road","Birmingham","West Midlands","B23 6SH"
"The William Jameson","30–32 Fawcett Street","Sunderland","Tyne and Wear","SR1 1RH"
"The Gog and Magog","57–59 Southside Street","Plymouth","Devon","PL1 2LA"
"The Unicorn","1–7 Ashley Road","Altrincham","Cheshire","WA14 2DP"
"The Harbord Harbord","17–21 Long Street","Middleton","Manchester","M24 6TE"
"The Six Chimneys","41–43 Kirkgate","Wakefield","West Yorkshire","WF1 1HX"
"The Admiral Byng","186–192 Darkes Lane","Potters Bar","Hertfordshire","EN6 1AF"
"The Hope Tap","99–105 Friar Street","Reading","Berkshire","RG1 1EP"
"The White Swan","255–256 Upper Street","Islington","London","N1 1RY"
"The David Macbeth Moir","Bridge Street","Musselburgh","East Lothian","EH21 6AG"
"The Watchman","184 High Street","New Malden","London","KT3 4ES"
"The White Hart","Unit 4, Exchange Street","Aylesbury","Buckinghamshire","HP20 1UR"
"The Lord Palmerston","84–90 Palmerston Road","Southsea","Hampshire","PO5 3PT"
"The Old Chapel","Railway Road","Darwen","Lancashire","BB3 2RJ"
"J.J. Moon’s","12 Victoria Road","Ruislip Manor","London","HA4 0AA"
"The Bishop Vesey","63 Boldmere Road","Sutton Coldfield","West Midlands","B73 5XA"
"The Hengler’s Circus","351–363 Sauchiehall Street","Glasgow","Glasgow","G2 3HU"
"The Walnut Tree","857–861 High Road","Leytonstone","London","E11 1HH"
"The Black Boy","31/32 Broad Street","Newtown","Powys","SY16 2BQ"
"The Crowborough Cross","Beacon Road","Crowborough","East Sussex","TN6 1AF"
"The Duke of Wellington","Wellington Square","Minehead","Somerset","TA24 5NH"
"The Tilley Stone","Unit 9–10 Jackson Street","Gateshead","Tyne and Wear","NE8 1EE"
"The Sun","17–21 London Road","Redhill","Surrey","RH1 1LY"
"The Queen's Head Hotel","79–80 West Street","Tavistock","Devon","PL19 8AQ"
"The Bears Head","37–39 Windsor Road","Penarth","Vale of Glamorgan","CF64 1JD"
"The Herbert Wells","51–57 Chertsey Road","Woking","Surrey","GU21 5AJ"
"The Wibbas Down Inn","6–12 Gladstone Road","Wimbledon","London","SW19 1QT"
"The Barum Top Inn","17 Rawson Street","Halifax","West Yorkshire","HX1 1NX"
"The Mockbeggar Hall","239–241 Hoylake Road","Moreton","Merseyside","CH46 0SL"
"The William Owen","6 Quay Street","Haverfordwest","Pembrokeshire","SA61 1BG"
"The Bourtree","22 Bourtree Place","Hawick","Scottish Borders","TD9 9HL"
"The Manor House","14 Melbourn Street","Royston","Hertfordshire","SG8 7BZ"
"The Sir Henry Segrave","93–97 Lord Street","Southport","Merseyside","PR8 1RH"
"The West Kirk","58a Sandgate","Ayr","South Ayrshire","KA7 1BX"
"The Raven","72–74 Walton Vale","Liverpool","Merseyside","L9 2BU"
"The Golden Acorn","1 North Street","Glenrothes","Fife","KY7 5NA"
"The Obediah Brooke","19 Bradford Road","Cleckheaton","West Yorkshire","BD19 3JH"
"The Bell Hotel","5 Orford Hill","Norwich","Norfolk","NR1 3QB"
"The London & County","46 Terminus Road","Eastbourne","East Sussex","BN21 3LX"
"The White Ball Inn","8 Bridge Street","Tiverton","Devon","EX16 5LY"
"Yr Ieuan Ap Iago","6 High Street","Aberdare","Rhondda Cynon Taff","CF44 7AA"
"The Crown Hotel","23 High Street	","Biggleswade","Bedfordshire","SG18 0JE"
"The Crown","Crown Square","Matlock","Derbyshire","DE4 3AT"
"The Moon and Cross","104–106 High Street","Waltham Cross","Hertfordshire","EN8 7BX"
"The Kirky Puffer","1–11 Townhead","Glasgow","Glasgow","G66 1NG"
"The Imperial","New North Road","Exeter","Devon","EX4 4AH"
"The Butler’s Bell","25–27 Gaolgate Street","Stafford","Staffordshire","ST16 2NT"
"The Crown Inn","40 West Street","Fareham","Hampshire","PO16 0JW"
"The White House","1 Bridge Street","Luton","Bedfordshire","LU1 1SA"
"The William Morris","59a Between Towns Road","Oxford","Oxfordshire","OX4 3LR"
"The Albany Palace","1 Park Road","Trowbridge","Wiltshire","BA14 8AQ"
"The Brandon Works","45–61 Merry Street","Motherwell","North Lanarkshire","ML1 1JJ"
"The Kings Head Hotel","4–6 New Market","Beccles","Suffolk","NR34 9HA"
"The Picture Playhouse","The Picture Playhouse						","Bexhill-on-Sea","East Sussex","TN40 1DY"
"The Exchange","49–50 High Street","Banbury","Oxfordshire","OX16 5LA"
"The Counting House","67–71 Reform Street","Dundee","Dundee City","DD1 1SP"
"The King’s Ford","250–252 Chingford Mount Road","Chingford","London","E4 8JL"
"The Ivory Peg","3–7 New London Road","Chelmsford","Essex","CM2 0SW"
"The Moon & Stars","164–166 High Street","Penge","London","SE20 7QS"
"The Joseph Conrad","18–32 Station Square","Lowestoft","Suffolk","NR32 1BA"
"The William Shenstone","1–5 Queensway","Halesowen","West Midlands","B63 4AB"
"The Clothier’s Arms","56 High Street","Leeds","West Yorkshire","LS19 7PP"
"Cross Keys","Back Street","Peterhead","Aberdeen","AB42 1TH"
"The Quayside","35–37 The Close","Newcastle upon Tyne","Tyne and Wear","NE1 3RN"
"The Capitol","11–21 London Road","Forest Hill","London","SE23 3TW"
"The Fire Station","18 York Road","Whitley Bay","Tyne and Wear","NE26 1AB"
"The Sir John Moore","260–292 Argyle Street","Glasgow","Glasgow","G2 8QW"
"The Poulton Elk","22 Hardhorn Road","Poulton-le-Fylde","Lancashire","FY6 7SR"
"The Chequers Inn","96 High Street","Stourbridge","West Midlands","DY8 1EQ"
"The Mardi Gras","Units 108–111, The Orient","Manchester","Manchester","M17 8EH"
"The Wilfred Owen","17 Willow Street","Oswestry","Shropshire","SY11 1AJ"
"The Briar Rose","25 Bennetts Hill","Birmingham","West Midlands","B2 5RE"
"The Green Ginger","Lower Ground Floor, Winter Garden","Torquay","Devon","TQ2 5DZ"
"The Plough & Harrow","120–124 King Street","Hammersmith","London","W6 0QU"
"Wetherspoons","201 Midsummer Boulevard","Milton Keynes","Buckinghamshire","MK9 1EA"
"The Wishaw Malt","62–66 Kirk Road","Wishaw","North Lanarkshire","ML2 7BL"
"The Lord Arthur Lee","100–108 West Street","Fareham","Hampshire","PO16 0EP"
"The Wouldhave","16 Mile End Road","South Shields","Tyne and Wear","NE33 1TA"
"The Running Horse","After Security, Robin Hood Airport","Doncaster","South Yorkshire","DN9 3GA"
"The Square Peg","115 Corporation Street","Birmingham","West Midlands","B4 6PH"
"The Pontlottyn","Somerset Street","Abertillery","Blaenau Gwent","NP13 1DJ"
"The Godfrey Morgan","158 Chepstow Road","Newport","Newport","NP19 8EG"
"Moon and Starfish","1 Marine Parade East","Clacton-on-Sea","Essex","CO15 1PU"
"The William Henry","1 Frederick Place","Weymouth","Dorset","DT4 8HQ"
"The Iron Duke","The Iron Duke		","Wellington","Somerset","TA21 8LS"
"The Beehive","407–409 Brixton Road","Brixton","London","SW9 7DG"
"Baxter’s Court","282–284 Mare Street","Hackney","London","E8 1HE"
"Opera House","88 Mount Pleasant Road","Royal Tunbridge Wells","Kent","TN1 1RT"
"The Woodthorpe Top","151A Woodthorpe Drive","Nottingham","Nottingham","NG3 5JL"
"The Twelve Tellers","14–15 Church Street","Preston","Lancashire","PR1 3BQ"
"The Flying Boat","36–42 Spital Street","Dartford","Kent","DA1 2DT"
"The Bath Arms","41 Market Place","Warminster","Wiltshire","BA12 9AZ"
"The Perkin Warbeck","22–23 East Street","Taunton","Somerset","TA1 3LP"
"The Spinning Mule","Unit 2, Nelson Square","Bolton","Greater Manchester","BL1 1JT"
"Globe Hotel","Tuesday Market Place","King’s Lynn","Norfolk","PE30 1EZ"
"The Great Western","64 St Mary Street","Cardiff","Cardiff","CF10 1FA"
"Ritz","143–147 High Street","Lincoln","Lincolnshire","LN5 7PJ"
"The Water House","65 North Road","Durham","County Durham","DH1 4SQ"
"The Lifeboat","41 Three Tuns Lane","Formby","Merseyside","L37 4AQ"
"Try Dowr","Lemon Quay","Truro","Cornwall","TR1 2LW"
"The Glass House","11–13 Wensum Street","Norwich","Norfolk","NR3 1LA"
"The Whiffler","Boundary Road","Norwich","Norfolk","NR6 5JB"
"The Shay Wake","2–10 Milnrow Road","Oldham","Greater Manchester","OL2 8EQ"
"The William Withering","43–45 New Street","Wellington","Shropshire","TF1 1LU"
"The Crossed Peels","8 Spittal Street","Stirling","Stirling","FK8 1AT"
"The Sir Norman Wisdom","18–20 Queens Street","Deal","Kent","CT14 6ET"
"The Widow Frost","Leeming Street","Mansfield","Nottinghamshire","NG18 1NB"
"The Playhouse","4 St Johns Street","Colchester","Essex","CO2 7AA"
"The Acorn Inn","16–18 Tamworth Street","Lichfield","Staffordshire","WS13 6JJ"
"The Willow Grove","387–389 Lord Street","Southport","Merseyside","PR9 0AG"
"The Mount Stuart","Landsea House, Stuart Place","Cardiff","Cardiff","CF10 5BU"
"The Trent Bridge Inn","2 Radcliffe Road","Nottingham","Nottingham","NG2 6AA"
"Captain Ridley’s Shooting Party","183-185 Queensway","Milton Keynes","Buckinghamshire","MK2 2ED"
"The Bear","3 Bath Road","Melksham","Wiltshire","SN12 6LL"
"The Welkin","7 Whitechapel","Liverpool","Merseyside","L1 6DS"
"The Horse Shoe Inn","4 Church Street","Crook","County Durham","DL15 9BG"
"The Sedge Lynn","21a Manchester Road","Chorlton-cum-Hardy","Manchester","M21 9PN"
"The Jolie Brise","9–15 Station Road","Teignmouth","Devon","TQ14 8PE"
"The Harvest Moon","141–143 High Street","Orpington","London","BR6 0LQ"
"The Henry Bell","19–29 James Street","Helensburgh","Argyll and Bute","G84 8AS"
"The Bright Water Inn","370–372 Shirley Road","Shirley","Hampshire","SO15 3HY"
"Spa Lane Vaults","34 St Mary’s Gate","Chesterfield","Derbyshire","S41 7TH"
"The Waterhouse","67–71 Princess Street","Manchester","Manchester","M2 4EG"
"The Ivy Wall","18–19 New Road","Spalding","Lincolnshire","PE11 1DQ"
"The Shrewsbury Hotel","Bridge Place","Shrewsbury","Shropshire","SY1 1PU"
"The Rodboro Buildings","1–10 Bridge Street","Guildford","Surrey","GU1 4RY"
"The Brockley Barge","184 Brockley Road","Brockley","London","SE4 2RR"
"The Market Cross","9–11 High Street","Holywell","Flintshire","CH8 7LA"
"The Robert Peel","5–10 Market Place","Bury","Manchester","BL9 0LD"
"The Three Fishes","56 Chapel Road","Worthing","West Sussex","BN11 1BE"
"The Hat and Feathers","57–59 Church Street","Seaham","County Durham","SR7 7HF"
"The Pillar of Rock","15 Castle Street","Chesterfield","Derbyshire","S44 6PP"
"The Tichenham Inn","11 Swakeleys Road","Ickenham","London","UB10 8DF"
"The Sir John Hawkshaw","Cannon Street Station, Cannon Street","London","London","EC4N 6AP"
"The Sir John Arderne","1–3 Church Street","Newark-on-Trent","Nottinghamshire","NG24 1DT"
"The King Doniert","The King Doniert","Liskeard","Cornwall","PL14 6AB"
"The Cricketers","51 Crown Street","Ipswich","Suffolk","IP1 3JA"
"The Briggate","37 Main Street","Leeds","West Yorkshire","LS25 1DS"
"The Pilgrim’s Progress","42 Midland Road","Bedford","Bedfordshire","MK40 1QB"
"The Sir Norman Rae","Victoria House","Shipley","West Yorkshire","BD18 3QB"
"The Back of Beyond","104–108 Kings Road","Reading","Berkshire","RG1 3BY"
"The Limes","30 Bridge Street","Fakenham","Norfolk","NR21 9AZ"
"The Benjamin Fawcett","Middle Street North","Driffield","East Yorkshire","YO25 6SW"
"The Corn Exchange","Market Place","Arbroath","Angus","DD11 1HR"
"An Geata Arundel - Opening Feb 2022","9 Arundel Square","Waterford","County Waterford","X91 RD35"
"The Golden Lion","44 High Street","Newmarket","Suffolk","CB8 8LB"
"The Richard John Blackler","Units 1 & 2, Charlotte Row","Liverpool","Merseyside","L1 1HU"
"The Crystal Palace","36 Jamaica Street","Glasgow","Glasgow","G1 4QD"
"The Moon in the Square","4–8 Exeter Road","Bournemouth","Dorset","BH2 5AQ"
"The Flying Horse","After Security, South Terminal, Gatwick Airport","Crawley","West Sussex","RH6 0NN"
"The Moon on the Square","Unit 30, The Centre","Feltham","London","TW13 4AU"
"The Gary Cooper","Unit 2, Grove Park","Dunstable","Bedfordshire","LU5 4GP"
"The Henry Bessemer","New Oxford Street","Workington","Cumbria","CA14 2NA"
"The Romany Rye","Church Street","Dereham","Norfolk","NR19 1DL"
"The Green Dragon","2 St Edward Street","Leek","Staffordshire","ST13 5DS"
"The Admiral Collingwood","Wilder Road","Ilfracombe","Devon","EX34 9AP"
"Golden Cross Hotel","20 High Street","Bromsgrove","Worcestershire","B61 8HH"
"The Angel Vaults Inn","5 Sun Street","Hitchin","Hertfordshire","SG5 1AE"
"The Hippodrome","Dartford Road","March","Cambridgeshire","PE15 8AQ"
"The Stamford Post","7 Sheep Market","Stamford","Lincolnshire","PE9 2QZ"
"The Bell Hanger","9–10 St Mary Street","Chepstow","Monmouthshire","NP16 5EW"
"The King and Castle","15–16 Thames Street","Windsor","Berkshire","SL4 1PL"
"The Tilly Shilling","Units 2–5, The Meads, Victoria Road","Farnborough","Hampshire","GU14 7PG"
"The First Post","42 High Street","Cosham","Hampshire","PO6 3AG"
"The Sir Henry Tate","New Market Street","Chorley","Lancashire","PR7 1DB"
"The Regent","Kingsway, Diamond Avenue","Kirkby-in-Ashfield","Nottinghamshire","NG17 7BQ"
"The Stag & Pheasant","Unit 4, Clumber Street","Mansfield","Nottinghamshire","NG18 1NU"
"George Hotel","Load Street","Bewdley","Worcestershire","DY12 2AW"
"The Ivor Davies","243–249 Cowbridge Road East","Cardiff","Cardiff","CF11 9AN"
"The Robert the Bruce","81–83 Buccleuch Street","Dumfries","Dumfries and Galloway","DG1 1DJ"
"The Portland Hotel","West Bars","Chesterfield","Derbyshire","S40 1AY"
"The John Russell Fox","10 High Street","Andover","Hampshire","SP10 1NY"
"Charles Henry Roe","39/41 Austhorpe Road","Leeds","West Yorkshire","LS15 8BA"
"The Plimsoll Line","138–142 High Street East","Redcar","North Yorkshire","TS10 3DH"
"The Society Rooms","Park Green","Macclesfield","Cheshire","SK11 7NA"
"The Grey Friar","144 Friargate","Preston","Lancashire","PR1 2EJ"
"The Prince Arthur","238 Fleet Road","Fleet","Hampshire","GU51 4BX"
"The Bank Statement","57–58 Wind Street","Swansea","Swansea","SA1 1EP"
"The Elihu Yale","44–46 Regent Street","Wrexham","Wrexham","LL11 1RR"
"The Swan Hotel","50 High Street","Leighton Buzzard","Bedfordshire","LU7 1EA"
"The Denmead Queen","8–9 Queens Parade","Waterlooville","Hampshire","PO7 7EB"
"The Swan","41–43 St Thomas Street","Weymouth","Dorset","DT4 8EH"
"The Sir William de Wessyngton","2–3 Victoria Road","Washington","Tyne and Wear","NE37 2SY"
"The Lord Wilson","Unit 27, Kingsgate Centre","Huddersfield","West Yorkshire","HD1 2PZ"
"The Robert Pocock","181–183 Windmill Street","Gravesend","Kent","DA12 1AH"
"The Richard Hopkins","34–42 Queen Street","Newton Abbot","Devon","TQ12 2EW"
"The County Hotel","10 High Street","Ashford","Kent","TN24 8TD"
"The Miller’s Well","419–421 Barking Road","East Ham","London","E6 2JX"
"Montgomery’s Tower","Lower Claremont Bank","Shrewsbury","Shropshire","SY1 1RT"
"Keavan's Port ","1 Camden Street Upper","Dublin","County Dublin","D02 TC61"
"The Winter Gardens","Unit 4, Royal Baths","Harrogate","North Yorkshire","HG1 2WH"
"The London and South Western","276–288 Lavender Hill","Battersea","London","SW11 1LJ"
"The Gold Cape","8–8a Wrexham Street","Mold","Flintshire","CH7 1ES"
"The Old Manor","Grenville Place","Bracknell","Berkshire","RG12 1BP"
"The Sir Nigel Gresley","Market Street","Swadlincote","Derbyshire","DE11 0AD"
"The Reginald Mitchell","The Tontine","Hanley","Staffordshire","ST1 1NQ"
"The Queens Arms","Dene Drive","Winsford","Cheshire","CW7 1AT"
"The William Adams","176 High Street","Great Yarmouth","Norfolk","NR31 6RG"
"The South Strand - Opens Dec 2021","1 Hanover Quay	","Dublin","County Dublin	","DO2 E295	"
"The Packet Station","4 The Moor","Falmouth","Cornwall","TR11 3QA"
"The Gordon Highlander","West High Street","Inverurie","Aberdeen","AB51 3QQ"
"The Powder Monkey","2–2a The Parade","Exmouth","Devon","EX8 1RJ"
"The Post & Telegraph","155–158 North Street","Brighton","East Sussex","BN1 1EA"
"NEC Wetherspoons","Birmingham NEC","Birmingham","West Midlands","B40 1NT"
"The Richmal Crompton","23 Westmoreland Place","Bromley","London","BR1 1DS"
"The Old Market Hall","Market Street","Mexborough","South Yorkshire","S64 9QA"
"The Village Inn","402–408 Rayners Lane","Rayners Lane","London","HA5 5DY"
"The Postern Gate","90 Piccadilly","York","North Yorkshire","YO1 9NX"
"The Felix Holt","3 Stratford Street","Nuneaton","Warwickshire","CV11 5BS"
"The Lord High Constable of England","Llanthony Warehouse, Llanthony Road, Gloucester Docks","Gloucester","Gloucestershire","GL1 2EH"
"The Bottle Kiln","60 Kingsway	","Harwich","Essex","CO12 3JR"
"The Dairyman","16–18 High Street","Brentwood","Essex","CM14 4AB"
"The Kings Tun","153–157 Clarence Street","Kingston upon Thames","London","KT1 1QT"
"The Narrows","25 High Street","Abingdon-on-Thames","Oxfordshire","OX14 5AA"
"The High Main","63 Shields Road","Newcastle upon Tyne","Tyne and Wear","NE6 1DL"
"The Liberty Bounds","15 Trinity Square","Tower of London","London","EC3N 4AA"
"The Jolly Tars","154–158 Victoria Road West","Cleveleys","Lancashire","FY5 3NE"
"The Foxley Hatch","8–9 Russell Hill Parade","Purley","London","CR8 2LE"
"The Drum","557–559 Lea Bridge Road","Leyton","London","E10 7EQ"
"The Full House","128 Marlowes","Hemel Hempstead","Hertfordshire","HP1 1EZ"
"The Kentish Drovers","71–79 Peckham High Street","Peckham","London","SE15 5RS"
"The Rocket","Putney Wharf Tower, Brewhouse Lane","Putney","London","SW15 2JQ"
"The Childwall Fiveways Hotel","179 Queens Drive","Liverpool","Merseyside","L15 6XS"
"The Lord John","15–17 Russell Street","Stroud","Gloucestershire","GL5 3AA"
"The Woodseats Palace","692 Chesterfield Road","Sheffield","South Yorkshire","S8 0SD"
"The Railway","113 Station Road","Rainham","Kent","ME8 7SF"
"The Blackwater Stream","180 Lower Blandford Road","Poole","Dorset","BH18 8DP"
"The Weeping Ash","15 New Street","St Neots","Cambridgeshire","PE19 1AE"
"The Archibald Simpson","5 Castle Street","Aberdeen","Aberdeen","AB11 5BQ"
"The Isambard Kingdom Brunel","2 Guildhall Walk","Portsmouth","Hampshire","PO1 2DD"
"The Postal Order","15–19 Darwen Street","Blackburn","Lancashire","BB2 2BY"
"The Spread Eagle","1146a  Warwick Road","Birmingham","West Midlands","B27 6BL"
"The John Francis Basset","Commercial Street","Camborne","Cornwall","TR14 8JZ"
"The Queen of Iceni","Unit 6, Riverside Development","Norwich","Norfolk","NR1 1ED"
"The Boot Inn","18 St James’ Street","Burnley","Lancashire","BB11 1NG"
"The Wild Rose","2a & 1b The Triad Centre","Bootle","Merseyside","L20 3ET"
"The Furness Railway","76–80 Abbey Road","Barrow-in-Furness","Cumbria","LA14 5UB"
"The Sir John Baker","80 London Road","Portsmouth","Hampshire","PO2 0LN"
"The Captain Noel Newton","55 High Street","Oakham","Rutland","LE15 6AJ"
"The Ivy House","Draymans Way","Alton","Hampshire","GU34 1SS"
"The Sennockian","139–141 High Street","Sevenoaks","Kent","TN13 1UX"
"The Hope & Champion","Unit 1A, Beaconsfield Services, (Junction 2, M40)","Beaconsfield","Buckinghamshire","HP9 2SE"
"The Dog Beck","21–22 Southend Road","Penrith","Cumbria","CA11 8JH"
"The Percy Shaw","Broad Street","Halifax","West Yorkshire","HX1 1YA"
"The Banker’s Draft","80 High Street","Eltham","London","SE9 1BW"
"The Four Candles","51–53 George Street","Oxford","Oxfordshire","OX1 2BE"
"Sandford House","George Street		","Huntingdon	","Cambridgeshire","PE29 3AD"
"The Angel","Unit R6, Lower Ground","Basingstoke","Hampshire","RG21 7BB"
"The Bankers Draft","1–3 Market Place","Sheffield","South Yorkshire","S1 2GH"
"The John Jacques","78–82 Fratton Road","Portsmouth","Hampshire","PO1 5BZ"
"The Nightjar","94 Victoria Road","Ferndown","Dorset","BH22 9JA"
"The Chevalier Inn","81–82 Fore Street","Exeter","Devon","EX4 3HR"
"The Sheaf Island","Wards Brewery, Ecclesall Road","Sheffield","South Yorkshire","S11 8HW"
"The Beaten Docket","50–56 Cricklewood Broadway","Cricklewood","London","NW2 3ET"
"The Keel Row","Unit G3, Ground Floor, The Gate Cinema Complex","Newcastle upon Tyne","Tyne and Wear","NE1 5RF"
"The Sir Daniel Arms","Fleet Street","Swindon","Wiltshire","SN1 1RQ"
"Woodrow Wilson","48 Botchergate","Carlisle","Cumbria","CA1 1QS"
"The Last Post","227 High Road","Loughton","Essex","IG10 1BB"
"The Alexander Graham Bell","128 George Street","Edinburgh","Edinburgh","EH2 4JZ"
"An Ruadh-Ghleann","40–44 Main Street","Rutherglen","South Lanarkshire","G73 2HY"
"The Half Moon Inn","Unit 1, 11–21 West Precinct","Billingham","County Durham","TS23 2NW"
"The Lantokay","111–113 High Street","Street","Somerset","BA16 0EY"
"The Cross Inn","The Cross Inn","Kingswinford","West Midlands","DY6 8AA"
"The Swan & Angel","The Swan & Angel","St Ives","Cambridgeshire","PE27 5AL"
"The Moon on the Hill","5–9 Hill Road","Sutton","London","SM1 1DZ"
"The Moon and Stars","99–103 South Street","Romford","London","RM1 1NX"
"The Elizabeth of York","12a St Mary’s Row","Moseley","West Midlands","B13 8JG"
"Airport Wetherspoons","After Security, Terminal 1, Birmingham International Airport","Birmingham","West Midlands","B26 3QJ"
"The Coliseum","Lion Street","Abergavenny","Monmouthshire","NP7 5PE"
"The Royal Enfield","The Old Cinema, Unicorn Hill","Redditch","Worcestershire","B97 4QR"
"The Amber Rooms","15 The Rushes","Loughborough","Leicestershire","LE11 5BE"
"The Albert and The Lion","Bank Hey Street","Blackpool","Lancashire","FY1 4RU"
"Abraham Darby","Merry Hill Centre","Brierley Hill","West Midlands","DY5 1SX"
"The Robert Fitzharding","24 Cannon Street","Bristol","Bristol","BS3 1BN"
"The Christopher Creeke","2 Holdenhurst Road","Bournemouth","Dorset","BH8 8AD"
"The Posset Cup","Unit 3, Mustad Way","Portishead","Somerset","BS20 7QZ"
"The Kingswood Colliers","94–96 Regent Street","Bristol","Bristol","BS15 8HP"
"The Ernehale","149–151 Nottingham Road","Arnold","Nottinghamshire","NG5 6JN"
"The Bank House","15–21 Clarence Street","Cheltenham","Gloucestershire","GL50 3JL"
"The Great Central","Wilmslow Road","Manchester","Manchester","M14 6NL"
"The Friar Penketh","4 Barbauld Street","Warrington","Cheshire","WA1 1EX"
"The Cross Keys","24 Northgate","Peebles","Scottish Borders","EH45 8RS"
"Goodman’s Field","87–91 Mansell Street","Tower Hamlets","London","E1 8AN"
"The Sir Samuel Romilly","Romilly Buildings","Barry","Vale of Glamorgan","CF62 7AU"
"The Master Mariner","3–5 Union Terrace","New Brighton","Merseyside","CH45 2JT"
"The Court Leet","4 Wheatsheaf Walk","Ormskirk","Lancashire","L39 2XA"
"The Old Gaolhouse","11a Jewry Street","Winchester","Hampshire","SO23 8RZ"
"The Knights Templar","1 The Square","Bristol","Bristol","BS1 6DG"
"The Ledger Building","4 Hertsmere Road","Docklands","London","E14 4AL"
"The Rockingham Arms","Metro Central Heights","Elephant & Castle","London","SE1 6BN"
"St. Matthew’s Hall","Lichfield Street","Walsall","West Midlands","WS1 1SX"
"The Bull and Stirrup Hotel","The Bull and Stirrup Hotel","Chester","Cheshire","CH1 4EE"
"The Square Bottle","78–92 Foregate Street","Chester","Cheshire","CH1 1HB"
"Waggon and Horses","9 King Street","Alfreton","Derbyshire","DE55 7AF"
"The Standing Order","30 The High Street","Southampton","Hampshire","SO14 2DF"
"The William Aylmer","Aylmer House","Harlow","Essex","CM20 1DG"
"The Punch Bowl","5–9 Blossom Street","York","North Yorkshire","YO24 1AU"
"The Oxted Inn","Units 1–4, Hoskins Walk","Oxted","Surrey","RH8 9HR"
"The Whalebone","58–64 Bridge Street","Downham Market","Norfolk","PE38 9DJ"
"The Figure of Eight","236–239 Broad Street","Birmingham","West Midlands","B1 2HG"
"The Ward Jackson","3–9 Church Square","Hartlepool","County Durham","TS24 7EU"
"The Chief Justice of the Common Pleas","2 Bank Street","Keswick","Cumbria","CA12 5JY"
"S. Fowler & Co.","41–43 Union Street","Ryde","Isle of Wight","PO33 2LF"
"The Benjamin Satchwell","112–114 The Parade","Royal Leamington Spa","Warwickshire","CV32 4AQ"
"The Talk of the Town","46–52 Torbay Road","Paignton","Devon","TQ4 6AL"
"The Company of Weavers","31 Market Square","Witney","Oxfordshire","OX28 6AD"
"The William Stead","8 Crown Street","Darlington","County Durham","DL1 1LU"
"The Blue Boar","39 High Street","Billericay","Essex","CM12 9BA"
"The Sir John Oldcastle","29–35 Farringdon Road","Farringdon","London","EC1M 3JF"
"The Angel Hotel","1 New Quay Road","Whitby","North Yorkshire","YO21 1DH"
"The Captain James Lang","97–99 High Street","Dumbarton","West Dunbartonshire","G82 1LF"
"The Up Steps Inn","17–23 High Street","Oldham","Greater Manchester","OL1 3AJ"
"The Commercial Hotel","1 Church Street","Accrington","Lancashire","BB5 2EN"
"The Benjamin Huntsman","12–18 Cambridge Street","Sheffield","South Yorkshire","S1 4HP"
"The Jolly Sailor","High Street","Bristol","Bristol","BS15 3DQ"
"The Coinage Hall","9–11 Coinagehall Street","Helston","Cornwall","TR13 8ER"
"The King’s Head Inn","1 Bridge Street","Salisbury","Wiltshire","SP1 2ND"
"Parsons’ Barn","Frobisher Way","Shoeburyness","Essex","SS3 8UT"
"The Waterfront Inn","6–7 The Waterfront","Brierley Hill","West Midlands","DY5 1XE"
"The Wallace Hartley","35–37 Church Street","Colne","Lancashire","BB8 0EB"
"The Smithy Fold","Unit 11, Howard Town Shopping Park","Glossop","Derbyshire","SK13 8HS"
"Yr Hen Orsaf","Alexandra Road","Aberystwyth","Ceredigion","SY23 1LN"
"The Toll Gate","26–30 Turnpike Lane","Harringay","London","N8 0PS"
"The Falcon","9 Cornmarket","High Wycombe","Buckinghamshire","HP11 2AX"
"The Sugar Loaf","18 High Street","Market Harborough","Leicestershire","LE16 7NJ"
"Rupert Brooke","8–10 Castle Street","Rugby","Warwickshire","CV21 2TP"
"The Prior John","34–36 Promenade","Bridlington","East Yorkshire","YO15 2QD"
"The Windlesora","17 William Street","Windsor","Berkshire","SL4 1BB"
"The Quay","21 The Quay","Poole","Dorset","BH15 1HJ"
"The Battesford Court","100–102 Newland Street","Witham","Essex","CM8 1AH"
"The White Horse","Wrawby Street","Brigg","Lincolnshire","DN20 8JR"
"The Alfred Herring","316–322 Green Lanes","Palmers Green","London","N13 5TT"
"The Soloman Cutler","Regency Wharf","Birmingham","West Midlands","B1 2DS"
"The Towan Blystra","12–16 Cliff Road","Newquay","Cornwall","TR7 1SG"
"The Cliftonville Inn","98–101 George Street","Hove","East Sussex","BN3 3YE"
"The Cooper Rose","2–4 Albion Place","Sunderland","Tyne and Wear","SR1 3NG"
"The Brass Balance","39–47 Argyle Street","Birkenhead","Merseyside","CH41 6AB"
"The Parchment Makers","1 Park Road North","Havant","Hampshire","PO9 1HE"
"The Samuel Peto","23 Rendezvous Street","Folkestone","Kent","CT20 1EY"
"The Wild Boar","Frederick Place","Houghton-le-Spring","Tyne and Wear","DH4 4BN"
"The Eight Bells","19 Cannon Street","Dover","Kent","CT16 1BZ"
"The Old Swan","Market Place","Uttoxeter","Staffordshire","ST14 8HN"
"The Gatekeeper","9–10 Westgate Street","Cardiff","Cardiff","CF10 1DD"
"The Great Glen","104 High Street","Fort William","Highland","PH33 6AD"
"The Asparagus","1–13 Falcon Road","Battersea","London","SW11 2PL"
"The Whispering Moon","25 Ross Parade","Wallington","London","SM6 8QF"
"The Thomas Frost","177–187 Walton Road","Liverpool","Merseyside","L4 4AJ"
"The Barking Dog","61 Station Parade","Barking","Essex","IG11 8TU"
"The Muggleton Inn","8–9 High Street","Maidstone","Kent","ME14 1HJ"
"The Nonsuch Inn","552–556 London Road","North Cheam","London","SM3 9AA"
"The Crown Rivers","After Security, Terminal 5, Heathrow Airport","Hounslow","Middlesex","TW6 2GA"
"The Tumble Inn","4–9 Broadway/Sardis Road","Pontypridd","Rhondda Cynon Taff","CF37 1BA"
"The Velvet Coaster","501–507 Promenade","Blackpool","Lancashire","FY4 1BA"
"The Jack Fairman","30 Victoria Road","Horley","Surrey","RH6 7PZ"
"The Great Harry","7–9 Wellington Street","Woolwich","London","SE18 6PQ"
"The Giddy Bridge","10–16 London Road","Southampton","Hampshire","SO15 2AF"
"The Skylark","34–36 South End","Croydon","London","CR0 1DP"
"The Thomas Waghorn","14 Railway Street				","Chatham","Kent","ME4 4JL"
"The Auld Brig","Units 13–15 Rivergate Shopping Centre","Irvine","North Ayrshire","KA12 8EH"
"The Poste of Stone","1 Granville Square","Stone","Staffordshire","ST15 8AB"
"The Six Templars","1 The Wash","Hertford","Hertfordshire","SG14 1PS"
"The Arthur Robertson","Walsall Road","Birmingham","West Midlands","B42 1AA"
"The Roebuck Inn","9–11 St James’s Street","Nottingham","Nottingham","NG1 6FH"
"Hamilton Hall","Street-level Concourse","City of London","London","EC2M 7PY"
"The Brocket Arms","38 Mesnes Road","Wigan","Greater Manchester","WN1 2DD"
"The Mechanical Elephant","28–30 Marine Terrace","Margate","Kent","CT9 1XJ"
"The Watch House","198–204 High Street","Lewisham","London","SE13 6JP"
"The Robert Nairn","6 Kirk Wynd","Kirkcaldy","Fife","KY1 1EH"
"The Frank Hornby","38 Eastway","Liverpool","Merseyside","L31 6BR"
"The General Sir Redvers Buller","37 High Street","Crediton","Devon","EX17 3JP"
"The Hornet","991 Alum Rock Road","Birmingham","West Midlands","B8 2LY"
"The Palladium","7 Gloddaeth Street","Llandudno","Conwy","LL30 2DD"
"The Barker’s Brewery","Archway Road","Liverpool","Merseyside","L36 9UJ"
"The Aneurin Bevan","Caerphilly Road","Cardiff","Cardiff","CF14 4AD"
"The Lord of the Isles","Unit 21, Xscape, King’s Inch Road","Glasgow","Glasgow","PA4 8XQ"
"The Edmund Tylney","30–34 High Street","Leatherhead","Surrey","KT22 8AW"
"The Thomas Burke","20a Leigh Road","Leigh","Lancashire","WN7 1QR"
"The City Arms","1 Earlsdon Street","Coventry","West Midlands","CV5 6EP"
"The Coronation Hall","St Mark’s Hill","Surbiton","London","KT6 4LQ"
"The Muckle Cross","34 High Street","Elgin","Moray","IV30 1BU"
"The Richard Oastler","Bethel Street","Brighouse","West Yorkshire","HD6 1JN"
"The Job Bulman","St Nicholas Avenue","Newcastle upon Tyne","Tyne and Wear","NE3 1AA"
"The Hatchet Inn","12 Market Place","Newbury","Berkshire","RG14 5BD"
"The Jubilee Oak","6 Grand Parade","Crawley","West Sussex","RH10 1BU"
"The Glass Blower","15 Bank Street","Castleford","West Yorkshire","WF10 1JD"
"The Admiral Sir Lucius Curtis","Canute’s Pavilion","Southampton","Hampshire","SO14 3JS"
"The Regal Moon","The Butts","Rochdale","Lancashire","OL16 1HB"
"The Queen Hotel","1 High Street","Aldershot","Hampshire","GU11 1BH"
"The College Arms","40 The Broadway","Peterborough","Cambridgeshire","PE1 1RS"
"The Guildhall & Linen Exchange","79–83 High Street","Dunfermline","Fife","KY12 7DR"
"The Lynd Cross","St John’s House","Horsham","West Sussex","RH12 2PG"
"The John Fairweather","52–58 Main Street","Cambuslang","South Lanarkshire","G72 7EP"
"The Water Gate","7 The Strand","Barnstaple","Devon","EX31 1EU"
"The Windmill","After Security, Stansted Airport","Stansted","Essex","CM24 1QN"
"The Wilfred Wood","204 London Road","Stockport","Cheshire","SK7 4DF"
"The Swan & Castle","Castle Street","Oxford","Oxfordshire","OX1 1AY"
"The Gate Clock","Cutty Sark Station","Greenwich","London","SE10 9RB"
"The New Fairlop Oak","Fencepiece Road","Fairlop","Essex","IG6 2JP"
"The Lord Caradoc","69–73 Station Road","Port Talbot","Neath Port Talbot","SA13 1NW"
"The Flying Standard","2–10  Trinity Street","Coventry","West Midlands","CV1 1FL"
"The Sussex","20–26 Sussex Street","Rhyl","Denbighshire","LL18 1SG"
"The Kingfisher","London Road South","Poynton","Cheshire","SK12 1NJ"
"The Clifton","Bull Ring","Sedgley","West Midlands","DY3 1RX"
"The Rawson Spring","Langsett Road","Sheffield","South Yorkshire","S6 2LN"
"The Hedley Verity","43a Woodhouse Lane","Leeds","West Yorkshire","LS1 3HQ"
"The Fall Well","St John’s Way","Liverpool","Merseyside","L1 1LS"
"The Grand Electric Hall","2 Cheapside","Spennymoor","County Durham","DL16 6DJ"
"The Jack Phillips","48–56 High Street","Godalming","Surrey","GU7 1DY"
"The Bobbing John","46 Drysdale Street","Alloa","Clackmannanshire","FK10 1JL"
"The Masque Haunt","168–172 Old Street","Old Street","London","EC1V 9BP"
"The Monkey Walk","1 Marlborough Square","Coalville","Leicestershire","LE67 3WD"
"The Wye Bridge House","Fairfield Road","Buxton","Derbyshire","SK17 7DJ"
"The Wallaw","14 Union Street","Blyth","Northumberland","NE24 2DX"
"The Tuesday Bell","4 Lisburn Square","Lisburn","County Antrim","BT28 1TS"
"The Bellwether","3–4 Walsall Street","Wednesbury","West Midlands","WS10 9BZ"
"The Wicket Gate","193 Front Street","Chester-le-Street","County Durham","DH3 3AX"
"The Ernest Willows","2–12 City Road","Cardiff","Cardiff","CF24 3DL"
"The Sir Michael Balcon","46–47 The Mall","Ealing","London","W5 3TJ"
"The Gate House","Priory Walk","Doncaster","South Yorkshire","DN1 1TS"
"The Eva Hart","1128 High Road","Chadwell Heath","Essex","RM6 4AH"
"The Lord Rosebery","85–87 Westborough","Scarborough","North Yorkshire","YO11 1JW"
"The Draper’s Arms","29–31 Cowgate","Peterborough","Cambridgeshire","PE1 1LZ"
"The North and South Wales Bank","14 High Street","Wrexham","Wrexham","LL13 8HP"
"Rose & Crown","109 High Street","Maldon","Essex","CM9 5EP"
"The Wheatsheaf Inn","18–22 Church Terrace","Wisbech","Cambridgeshire","PE13 1BL"
"The Tailor’s Chalk","47–49 Sidcup High Street","Sidcup","London","DA14 6ED"
"The William Tyler","140 Church Road","Birmingham","West Midlands","B25 8UT"
"The Wrong ’Un","234–236 The Broadway","Bexleyheath","London","DA6 8AS"
"The Samuel Hall","The Old Bus Depot, Mansfield Road","Nottingham","Nottingham","NG5 2JN"
"The Liquorice Gardens","1a Newcastle Street","Worksop","Nottinghamshire","S80 2AS"
"The Coal Orchard","30–32 Bridge Street","Taunton","Somerset","TA1 1UD"
"Colombia Press","72–74 The Parade","Watford","Hertfordshire","WD17 1AW"
"Lloyds No.1 Bar","1 Carlton Street","Nottingham","Nottingham","NG1 1NL"
"The Central Hotel","2–4 Chester Road West","Shotton","Flintshire","CH5 1BX"
"The Rochester Castle","143–145 Stoke Newington High Street","Stoke Newington","London","N16 0NY"
"The Gooseberry Bush","Peel Street","Nottingham","Nottingham","NG1 4GL"
"The Billiard Hall","St Michael’s Street","West Bromwich","West Midlands","B70 7AB"
"The Six Gold Martlets","49–51 Church Walk","Burgess Hill","West Sussex","RH15 9BQ"
"The Earl of Dalkeith","13–15 Dalkeith Place","Kettering","Northamptonshire","NN16 0BS"
"The Catherine Wheel","7–15 Hart Street","Henley-on-Thames","Oxfordshire","RG9 2AR"
"The Myrtle Grove","141 Main Street","Bingley","West Yorkshire","BD16 1AJ"
"The High Cross","103–105 High Street","Leicester","Leicestershire","LE1 4JB"
"The Union Rooms","4 Hick Lane","Batley","West Yorkshire","WF17 5HW"
"The Admiral of the Humber","1 Anlaby Road","Kingston Upon Hull","East Yorkshire","HU1 2NT"
"The Railway Inn","143 High Street","Rushden","Northamptonshire","NN10 0PA"
"The Reeds Arms","1 Pier Street","Burnham-on-Sea","Somerset","TA8 1BT"
"The Sovereign of the Seas","109–111 Queensway","Petts Wood","London","BR5 1DG"
"The Metropolitan Bar","7 Station Approach","Marylebone","London","NW1 5LA"
"The Greenwood Hotel","674 Whitton Avenue West			","Northolt	","London","UB5 4LA"
"The Olympia","Morgan Street","Tredegar","Blaenau Gwent","NP22 3ND"
"The Cordwainer","The Ridings","Northampton","Northamptonshire","NN1 2AQ"
"The Stanley Jefferson","5 Market Place","Bishop Auckland","County Durham","DL14 7NJ"
"The John Logie Baird","29–31 Havelock Road","Hastings","East Sussex","TN34 1BE"
"Wetherspoon Express","After Security, Stansted Airport","Stansted","Essex","CM24 1QN"
"The Playfair","Omni Centre","Edinburgh","Edinburgh","EH1 3AJ"
"V-Shed","The Waterfront","Bristol","Bristol","BS1 5UH"
"The Giant Bellflower","47a Gowthorpe","Selby","North Yorkshire","YO8 4HF"
"The Ash Tree","9–11 Wellington Road","Ashton-under-Lyne","Lancashire","OL6 6DA"
"The Maidenhead Inn","17 Winchester Street","Basingstoke","Hampshire","RG21 7ED"
"The Saltoun Inn","Saltoun Square","Fraserburgh","Aberdeenshire","AB43 9DA"
"The Troll Cart","7–9 Regent Road","Great Yarmouth","Norfolk","NR30 2AF"
"The Golden Hope","1 Park Road","Sittingbourne","Kent","ME10 1DR"
"The Calverts Court","13 St Petersgate","Stockport","Cheshire","SK1 1EB"
"The Corryvreckan","Unit 1, The Waterfront Centre, Railway Pier","Oban","Argyll and Bute","PA34 4LW"
"The New Cross Turnpike","55 Bellegrove Road","Welling","London","DA16 3PB"
"Cornfield Garage","21–23 Cornfield Road","Eastbourne","East Sussex","BN21 4QD"
"The Savoy","38–40 Regent Street","Swindon","Wiltshire","SN1 1JL"
"The Crossed Shuttle","11 Manor House Street","Leeds","West Yorkshire","LS28 7BJ"
"The William Dampier","97 Middle Street","Yeovil","Somerset","BA20 1LN"
"Jewel of the Severn","80–81 High Street","Bridgnorth","Shropshire","WV16 4DS"
"The Lady Chatterley","59 Nottingham Road","Nottingham","Nottingham","NG16 3AL"
"The Three Tuns","54 Market Place","Thirsk","North Yorkshire","YO7 1LH"
"The Prestwick Pioneer","87 Main Street","Prestwick","South Ayrshire","KA9 1JS"
"The Joseph Else","11–12 South Parade","Nottingham","Nottingham","NG1 2JS"
"The Moon and Sixpence","250 Uxbridge Road","Hatch End","London","HA5 4HS"
"The Dockle Farmhouse","2 Bridge End Road","Swindon","Wiltshire","SN3 4PD"
"The Three Hulats","13 Harrogate Road","Leeds","West Yorkshire","LS7 3NB"
"Thorn’s Farm","11–17 South Parade","Yate","Gloucestershire","BS37 4BB"
"The Sawyer’s Arms","121 Cowick Street","Exeter","Devon","EX4 1JD"
"Cabot Court Hotel","Knightstone Road","Weston-super-Mare","Somerset","BS23 2AH"
"The Malcolm Uphill","87–91 Cardiff Road","Caerphilly","Caerphilly","CF83 1FQ"
"The Avion","19 Anchor Road","Aldridge","West Midlands","WS9 8PT"
"The Church House","Montgomery Square","Wath-upon-Dearne","South Yorkshire","S63 7RZ"
"The Blue Bell Inn","1–7 Oswald Road","Scunthorpe","Lincolnshire","DN15 7PU"
"Shakespeare's Head","Africa House, 64–68 Kingsway","Holborn","London","WC2B 6BG"
"The Mardy Inn","117 High Street","Swansea","Swansea","SA4 4BR"
"Palladium Electric","110 High Street","Midsomer Norton","Somerset","BA3 2DA"
"The Queens Hotel","Tickhill Road","Rotherham","South Yorkshire","S66 7NQ"
"The Ironstone Miner","The Ironstone Miner","Guisborough","North Yorkshire","TS14 6AP"
"The Highland Laddie","59 High Street","Norton","County Durham","TS20 1AQ"
"The Admiral Sir John Borlase Warren","97 Derby Road","Nottingham","Nottingham","NG9 7AA"
"The Wyndham Arms","Dunraven Place","Bridgend","Bridgend","CF31 1JE"
"The Joseph Bramah","15 Market Hill","Barnsley","South Yorkshire","S70 2PX"
"The Willow Walk","25 Wilton Road","Victoria","London","SW1V 1LW"
"The Half Moon","213–223 Mile End Road","Mile End","London","E1 4AA"
"The Hatter’s Inn","2–10 Queensway","Bognor Regis","West Sussex","PO21 1QT"
"The Dolphin & Anchor","West Street","Chichester","West Sussex","PO19 1QD"
"Y Dic Penderyn","102–103 High Street","Merthyr Tydfil","Merthyr Tydfil","CF47 8AP"
"The Leading Light","20–22 Preston Street","Faversham","Kent","ME13 8NZ"
"The Cerdic","49–51 Fore Street","Chard","Somerset","TA20 1QA"
"Penderel’s Oak","283–288 High Holborn","Holborn","London","WC1V 7HP"
"George’s Meeting House","38 South Street","Exeter","Devon","EX1 1ED"
"The West Quay","Brighton Marina Village","Brighton","East Sussex","BN2 5UT"
"The Red Well","16 Silver Street","Wellingborough","Northamptonshire","NN8 1BD"
"The Arnold Machin","37 Ironmarket","Newcastle-under-Lyme","Staffordshire","ST5 1PB"
"The Old Unicorn","165 Town Street","Leeds","West Yorkshire","LS13 3NA"
"The Temeraire","55 High Street","Saffron Walden","Essex","CB10 1AA"
"The Red Lion Inn","49 Sway Road","Swansea","Swansea","SA6 6JA"
"The Moon & Bell","6 Wards End","Loughborough","Leicestershire","LE11 3HA"
"The Coronet","338–346 Holloway Road","Holloway","London","N7 6NJ"
"The Malthouse","The Dale","Willenhall","West Midlands","WV13 2BG"
"The Assembly Rooms","147–153 High Street","Epsom","Surrey","KT19 8EH"
"The Thomas Drummond","London Street","Fleetwood","Lancashire","FY7 6JE"
"The J. P. Joule","2a Northenden Road","Sale","Manchester","M33 3BR"
"The Thomas Leaper","27 Iron Gate","Derby","Derbyshire","DE1 3GL"
"The Silk Mercer","St Johns Street","Devizes","Wiltshire","SN10 1BL"
"The Moon and Spoon","86–88 High Street","Slough","Berkshire","SL1 1EL"
"City and County","Market Square","Goole","East Yorkshire","DN14 5DR"
"The Yarborough Hotel","29 Bethlehem Street","Grimsby","Lincolnshire","DN31 1JN"
"The John Wallace Linton","Units 10–12, The Cambrian Centre","Newport","Newport","NP20 4AD"
"The Navigation Inn - Opens Dec 2021","1 Wharf Road","Birmingham	","West Midlands","B30 3LS	"
"The Steel Foundry","Unit 12, The Oasis, Meadowhall Centre","Sheffield","South Yorkshire","S9 1EP"
"The Thomas Sheraton","4 Bridge Road","Stockton-on-Tees","County Durham","TS18 1BH"
"The Mannamead","61–63 Mutley Plain","Plymouth","Devon","PL4 6JH"
"The Scarsdale Hundred - Opens Dec 2021","2 Sevenairs Road","Sheffield	","South Yorkshire","S20 1NZ	"
"The Coliseum Picture Theatre","26–28 High Street","Cleethorpes","Lincolnshire","DN35 8JN"
"The Panniers","33–34 Boutport Street","Barnstaple","Devon","EX31 1RX"
"The Edwin Waugh","10–12 Market Street","Heywood","Manchester","OL10 4LY"
"The Five Swans","14 St Marys Place","Newcastle upon Tyne","Tyne and Wear","NE1 7PG"
"The Crosse Keys","9 Gracechurch Street","City of London","London","EC3V 0DR"
"The King of Wessex","5–10 James Street West","Bath","Somerset","BA1 2BX"
"Beckett's Bank","28–30 Park Row","Leeds","West Yorkshire","LS1 5HU"
"The Montagu Pyke","105–107 Charing Cross Road","West End","London","WC2H 0BP"
"The Fair O’Blair","25–29 Allan Street","Blairgowrie","Perth and Kinross","PH10 6AB"
"The Surrey Docks","185 Lower Road","Rotherhithe","London","SE16 2LW"
"The Pennsylvanian","115–117 High Street","Rickmansworth","Hertfordshire","WD3 1AN"
"The Royal Tiger","41–43 The High Street","Wednesfield","West Midlands","WV11 1ST"
"The Green Parrot","St George’s Hill","Perranporth","Cornwall","TR6 0JP"
"The Bear and Ragged Staff","50 King Street","Bedworth","Warwickshire","CV12 8JA"
"The Mare Pool","294 Lichfield Road","Mere Green","West Midlands","B74 2UG"
"Yr Hen Dderwen","47–48 King Street","Carmarthen","Carmarthenshire","SA31 1BH"
"The Joseph Morton","Pawnshop Passage","Louth","Lincolnshire","LN11 9EZ"
"The Company Row","The Victoria Centre","Consett","County Durham","DH8 5BQ"
"The White Hart Hotel","The White Hart Hotel				","Okehampton","Devon","EX20 1HD"
"The Star Inn","33 New Street","Honiton","Devon","EX14 1BS"
"The Navigator","694 Queen’s Drive","Stoneycroft","Merseyside","L13 5UH"
"The Carron Works","Bank Street","Falkirk","Stirling and Falkirk","FK1 1NB"
"The David Protheroe","7 Windsor Road","Neath","Neath Port Talbot","SA11 1LS"
"The Old Swanne Inne","66 High Street","Evesham","Worcestershire","WR11 4HG"
"The George Inn","14–18 Surrey Street","Littlehampton","West Sussex","BN17 5BG"
"The Vigilance","5 Bolton Street","Brixham","Devon","TQ5 9DE"
"The Booking Office","17 Waverley Bridge","Edinburgh","Edinburgh","EH1 1BQ"
"The Potters Wheel","85–86 The Kingsway","Swansea","Swansea","SA1 5JE"
"The Mossy Well","258 Muswell Hill Broadway","Muswell Hill","London","N10 3SH"
"The Rose Salterne","9–10 Bridgeland Street","Bideford","Devon","EX39 2PZ"
"The Society Room","151 West George Street","Glasgow","Glasgow","G2 2JJ"
"The Looking Glass","41–43 Buttermarket Street","Warrington","Cheshire","WA1 2LY"
"The Three John Scotts","City Exchange, Alfred Gelder Street","Kingston Upon Hull","East Yorkshire","HU1 1AA"
"Sheffield Water Works Company","Cambridge House","Sheffield","South Yorkshire","S1 4GF"
"The James Watt","80–92 Cathcart Street","Greenock","Inverclyde","PA15 1DD"
"The Claude du Vall","77–81 High Street","Camberley","Surrey","GU15 3RB"
"The Resolution","19 Newport Crescent","Middlesbrough","North Yorkshire","TS1 5UA"
"The Thomas Botfield","Central Square","Telford","Shropshire","TF3 4BW"
"The Plaza","Horsefair","Rugeley","Staffordshire","WS15 2EH"
"The Tim Bobbin","41 Flixton Road","Urmston","Manchester","M41 5AN"
"The Court of Requests","Church Street","Oldbury","West Midlands","B69 3AF"
"The Shoulder of Mutton","2 Market Street","Ashby-de-la-Zouch","Leicestershire","LE65 1AF"
"The Sirhowy","61–63 High Street","Blackwood","Caerphilly","NP12 1BA"
"The Sir Richard Owen","4 Spring Garden Street","Lancaster","Lancashire","LA1 1RQ"
"The Prince of Wales","81–83 St Mary Street","Cardiff","Cardiff","CF10 1FA"
"Goldengrove","146–148 The Grove","Stratford","London","E15 1NS"
"The Bradley Green","68 High Street","Biddulph","Staffordshire","ST8 6AS"
"The Earl of Mercia","18 High Street","Coventry","West Midlands","CV1 5RE"
"The Broken Bridge","5 Horsefair","Pontefract","West Yorkshire","WF8 1PD"
"The Newyearfield","Unit 1, Livingston Designer Outlet","Livingston","West Lothian","EH54 6QX"
"The Hay Stook","26-36 Princes Avenue","East Kilbride","South Lanarkshire","G74 1JU"
"The Britannia Inn","1 Wolseley Road","Plymouth","Devon","PL2 3AA"
"The Holland Tringham","107–109 Streatham High Road","Streatham","London","SW16 1HJ"
"The Fox on the Hill","149 Denmark Hill","Camberwell","London","SE5 8EH"
"The Furze Wren","Broadway Sq, 6 Market Place","Bexleyheath","London","DA6 7DY"
"Royal Victoria Pavilion","Royal Victoria Pavilion","Ramsgate","Kent	","CT11 8LS"
"The Lord Burton","154 High Street","Burton upon Trent","Staffordshire","DE14 1JE"
"The Sir Henry Newbolt","45–47 High Street","Bilston","West Midlands","WV14 0EP"
"The Tollemache Inn","17 St Peter’s Hill","Grantham","Lincolnshire","NG31 6PY"
"The Five Quarter","Units 3b–3c, Hailsham Place","Peterlee","County Durham","SR8 1AB"
"The Ford Madox Brown","Wilmslow Park","Manchester","Manchester","M13 9NG"
"The Pommelers Rest","196–198 Tower Bridge Road","Tower Bridge (South)","London","SE1 2UN"
"Stick or Twist ","16, Merrion Way","Leeds","West Yorkshire","LS2 8PT"
"The Leyland Lion","60 Hough Lane","Leyland","Lancashire","PR25 2SA"
"The Sweyn Forkbeard","22–24 Silver Street","Gainsborough","Lincolnshire","DN21 2DP"
"The Tanners Hall","63–64 Skinnergate","Darlington","County Durham","DL3 7LL"
"The West Gate Inn","1–3 North Lane","Canterbury","Kent","CT2 7EB"
"The Robert Shaw","34–40 Market Street","Westhoughton","Greater Manchester","BL5 3AN"
"The Eccles Cross","13 Regent Street","Eccles","Manchester","M30 0BP"
"The Quarter Jack","18 Priory Road","Wells","Somerset","BA5 1SY"
"The Lord Wimborne","59 Lagland Street","Poole","Dorset","BH15 1QD"
"John The Clerk of Cramlington","Low Main Place","Cramlington","Northumberland","NE23 1DN"
"The Bloxwich Showman","156A High Street","Bloxwich","West Midlands","WS3 3JT"
"The Square Sail","Brayford Wharf North","Lincoln","Lincolnshire","LN1 1YW"
"The Eric Bartholomew","10–18 Euston Road","Morecambe","Lancashire","LA4 5DD"
"The Alexander Bain","Market Place","Wick","Highland","KW1 4LP"
"Castle in the Air","Chill Factore","Manchester","Manchester","M17 8DD"
"The Bowling Green","18 Bondgate","Otley","West Yorkshire","LS21 3AB"
"The Blue Bell","8 Cross Hill","Pontefract","West Yorkshire","WF9 4LQ"
"The John Masefield","70–72 New Chester Road","New Ferry","Merseyside","CH62 5AD"
"The Trawl Boat Inn","36–38 Wood Street","Lytham St Annes","Lancashire","FY8 1QR"
"The Ritz","87–93 High Street West","Wallsend","Tyne and Wear","NE28 8JD"
"The Bishops’ Mill","Walkergate Leisure","Durham","County Durham","DH1 1WA"
"The Botwell Inn","25–29 Coldharbour Lane","Hayes","London","UB3 3EB"
"The Sir Walter Scott","Unit C170 After Security","Edinburgh","Edinburgh","EH12 9DN"
"The Spon Gate","Unit 2M, The Skydome, Croft Road","Coventry","West Midlands","CV1 3AZ"
"The Wagon Works","28 Southampton Road","Eastleigh","Hampshire","SO50 9FJ"
"The Bransty Arch","Bransty Row","Whitehaven","Cumbria","CA28 7XE"
"The Lime Kiln","Fleet Street/Concert Square","Liverpool","Merseyside","L1 4NR"
"The Swatters Carr","228 Linthorpe Road","Middlesbrough","North Yorkshire","TS1 3QW"
"The Atrium","Birmingham NEC","Birmingham","West Midlands","B40 1NT"
"The Castle Hotel","St Peters Square","Ruthin","Denbighshire","LL15 1AA"
"The Six Bells","47–48 St Thomas Street","Lymington","Hampshire","SO41 9ND"
"The John Fielding","1 Caradoc Road","Cwmbran","Torfaen","NP44 1PP"
"The Bright Helm","20–22a West Street","Brighton","East Sussex","BN1 2RE"
"The Carrick Stone","52 Teviot Walk","Glasgow","North Lanarkshire","G67 1NG"
"The Hart & Spool","148 Shenley Road","Borehamwood","Hertfordshire","WD6 1EQ"
"Sir John Stirling Maxwell","140 Kilmarnock Road","Glasgow","Glasgow","G41 3NN"
"The York Palace","51 Stepney Street","Llanelli","Carmarthenshire","SA15 3YA"
"The New Moon","25–26 Kenton Park Parade","Harrow","London","HA3 8DN"
"The Clairville","48 Wallasey Road","Wallasey","Merseyside","CH45 4NW"
"The Turls Green","Unit D, Centenary Square","Bradford","West Yorkshire","BD1 1HY"
"The Good Yarn","132 High Street","Uxbridge","London","UB8 1JX"
"The Unicorn Hotel","Market Place East","Ripon","North Yorkshire","HG4 1BP"
"The Premier","93–99 Albert Road","Widnes","Cheshire","WA8 6JS"
"Oyster Rooms","Unit 3, First Floor","Fulham","London","SW6 1AA"
"The Butter Cross","Market Place","Bingham","Nottinghamshire","NG13 8AP"
"The Esquire House","Esquire House","Glasgow","Glasgow","G12 0AU"
"The Paramount","33–35 Oxford Street","Manchester","Manchester","M1 4BH"
"The William Peverel","259 Main Street","Nottingham","Nottingham","NG6 8EZ"
"The Dominie Cross","38 Grove Street","Retford","Nottinghamshire","DN22 6JR"
"The Royal Oak","21–22 High West Street","Dorchester","Dorset","DT1 1UW"
"The Electrical Wizard","11 New Market","Morpeth","Northumberland","NE61 1PS"
"The Glassmaker","12 Crown Glass Place","Nailsea","Somerset","BS48 1RD"
"The Packhorse Inn","7 Northgate","Sleaford","Lincolnshire","NG34 7BH"
"The Foley Arms Hotel","14 Worcester Road","Great Malvern","Worcestershire","WR14 4QS"
"Grover & Allen","68–69 North Street","Sudbury","Suffolk","CO10 1RF"
"The Sir Thomas Gerard","2 Gerard Street","Ashton-in-Makerfield","Lancashire","WN4 9AN"
"Harpsfield Hall","13a Parkhouse Court","Hatfield","Hertfordshire","AL10 9RQ"
"The Hudson Bay","1–5 Upton Lane","Forest Gate","London","E7 9PA"
"The Bluecoat","The Crofts","Rotherham","South Yorkshire","S60 2DJ"
"The Golden Beam ","Headingley Lane","Headingley","West Yorkshire","LS6 1BL"
"The World’s Inn","113–117 South Street","Romford","London","RM1 1NX"
"The Greyhound","205 High Street","Bromley","London","BR1 1NY"
"The Commercial Inn","The Wharf, 31 Wharf Street","Sowerby Bridge","West Yorkshire","HX6 2LA"
"The Carnival Inn","37 St Mary Street","Bridgwater","Somerset","TA6 3LY"
"The Queen’s Picture House","47–49 South Road","Liverpool","Merseyside","L22 5PE"
"Pen Cob","Station Square","Pwllheli","Gwynedd","LL53 5HG"
"The King’s Head","8 Agincourt Square","Monmouth","Monmouthshire","NP25 3DY"
"The Harry Clasper","Front Street","Whickham","Tyne and Wear","NE16 4HF"
"The Man in the Moon","16–17 St James Street","Newport","Isle of Wight","PO30 5HB"
"The Ice Wharf","Units 1–2, Suffolk Wharf","Camden","London","NW1 7BY"
"The Berkeley","15–19 Queens Road","Bristol","Bristol","BS8 1QE"
"The Britannia","124 Halesowen Street","Rowley Regis","West Midlands","B65 0ES"
"The Livery Rooms","89–97 North Street","Keighley","West Yorkshire","BD21 3AA"
"The Hain Line","Tregenna Place","St Ives","Cornwall","TR26 1SD"
"The Kings Fee","49–53 Commercial Road","Hereford","Herefordshire","HR1 2BJ"
"The Belle and Lion","22–24 High Street","Sheerness","Kent","ME12 1NL"
"The Roebuck","138 High Street","Rayleigh","Essex","SS6 7BU"
"The Railway Bell","13 East Barnet Road","Barnet","London","EN4 8RR"
"Chapel an Gansblydhen","Fore Street","Bodmin","Cornwall","PL31 2HR"
"Hunters Hall","56–58 High Street","Galashiels","Scottish Borders","TD1 1SE"
"The Lister Arms","14 The Moors Shopping Centre","Ilkley","West Yorkshire","LS29 9LB"
"The Dee Hotel","44 Grange Road","West Kirby","Merseyside","CH48 4EF"
"The Red Lion & Pineapple","281 High Street","Acton","London","W3 9BP"
"The Ounce & Ivy Bush","The Atrium","East Grinstead","West Sussex","RH19 3DJ"
"The Bole Bridge","8 Bolebridge Street","Tamworth","Staffordshire","B79 7PA"
"The Three Magnets","18–20 Leys Avenue","Letchworth","Hertfordshire","SG6 3EW"
"The Milan Bar","Ground Floor, Grants Department Store","Croydon","London","CR0 1YA"
"The North Western","7 Lime Street","Liverpool","Merseyside","L1 1RJ"
"The Humphrey Bean","94 High Street","Tonbridge","Kent","TN9 1AP"
"Waterend Barn","St Peters Street","St Albans","Hertfordshire","AL1 3LE"
"The Kettleby Cross","Wilton Road","Melton Mowbray","Leicestershire","LE13 0UJ"
"The Winter Seam","Xscape","Castleford","West Yorkshire","WF10 4TA"
"Jolly’s Hotel","43a Gray Street","Broughty Ferry","Dundee City","DD5 2BJ"
"The Full Moon","58–60 High Street","Dudley","West Midlands","DY1 1PY"
"The Colley Rowe Inn","54–56 Collier Row Road","Collier Row","Essex","RM5 3PA"
"The William Wygston","84 Leicester Road","Wigston","Leicestershire","LE18 1DR"
"The Saracens Head Inn","1 Brook Street","Daventry","Northamptonshire","NN11 4GG"
"The Commercial Rooms","43–45 Corn Street","Bristol","Bristol","BS1 1HT"
"The Port Jackson","Ground Floor Units D1/D2, Block D, Riverside Wharf, Riverside","Bishop’s Stortford","Hertfordshire","CM23 3GN"
"The Thomas Ingoldsby","5–9 Burgate","Canterbury","Kent","CT1 2HG"
"The Free Man","334–336 Carlton Hill","Nottingham","Nottingham","NG4 1JD"
"Spouter’s Corner","Unit 5, Spouter’s Corner","Wood Green","London","N22 6EJ"
"The Dragon Inn","Hurst Street","Birmingham","West Midlands","B5 4TD"
"The Company Inn","Castle Wharf","Nottingham","Nottingham","NG1 7EH"
"The Foot of the Walk","183 Constitution Street","Leith","Edinburgh","EH6 7AA"
"The Capital Asset","26 Tay Street","Perth","Perth and Kinross","PH1 5LQ"
"The Silkstone Inn","64 Market Street","Barnsley","South Yorkshire","S70 1SN"
"Tafarn Y Porth","5–9 Eastgate Street","Caernarfon","Gwynedd","LL55 1AG"
"The Rann Wartha","Biddicks Court","St Austell","Cornwall","PL25 5EW"
"The Gateway","882 Wilmslow Road","East Didsbury","Greater Manchester","M20 5PG"
"The Horseshoe","30 High Street","Wombwell","South Yorkshire","S73 0AA"
"The Man in the Wall","10 West Borough","Wimborne","Dorset","BH21 1NF"
"The Paddle Steamer","The Promenade","Largs","North Ayrshire","KA30 8LX"
"The Cuthbert Brodrick","99 Portland Crescent","Leeds","West Yorkshire","LS2 3AD"
"The Miles Thompson","Council Offices, Allhallows Lane","Kendal","Cumbria","LA9 4JH"
"The Parkstone and Heatherlands","433–437 Wimborne Road","Bournemouth","Dorset","BH9 2AN"
"The Babington Arms","11–13 Babington Lane","Derby","Derbyshire","DE1 1TA"
"The Great Spoon of Ilford","114–116 Cranbrook Road","Ilford","Essex","IG1 4LZ"
